{
  "type": "FeatureCollection",
  "metadata": {
    "generated": 1710000000000,
    "url": "https://earthquake.usgs.gov/earthquakes/feed/v1.0/summary/significant_day.geojson",
    "title": "USGS Significant Earthquakes, Past Day",
    "status": 200,
    "api": "2.7.0",
    "count": 3
  },
  "features": [
    {
      "type": "Feature",
      "properties": {
        "mag": 6.2,
        "place": "45 km SW of Copiapo, Chile",
        "time": 1710000000000,
        "updated": 1710003600000,
        "tz": null,
        "url": "https://earthquake.usgs.gov/earthquakes/eventpage/us1000sample1",
        "felt": 120,
        "cdi": 4.1,
        "mmi": 5.2,
        "alert": "green",
        "status": "reviewed",
        "tsunami": 0,
        "sig": 700,
        "net": "us",
        "code": "1000sample1",
        "magType": "mww",
        "type": "earthquake",
        "title": "M 6.2 - 45 km SW of Copiapo, Chile"
      },
      "geometry": {
        "type": "Point",
        "coordinates": [-71.2, -27.4, 35]
      },
      "id": "us1000sample1"
    },
    {
      "type": "Feature",
      "properties": {
        "mag": 4.7,
        "place": "5 km NNE of Korumburra, Australia",
        "time": 1710007200000,
        "updated": 1710009000000,
        "tz": null,
        "url": "https://earthquake.usgs.gov/earthquakes/eventpage/us1000sample2",
        "felt": 517,
        "cdi": 5.4,
        "mmi": 5.856,
        "alert": "green",
        "status": "reviewed",
        "tsunami": 0,
        "sig": 619,
        "net": "us",
        "code": "1000sample2",
        "magType": "mb",
        "type": "earthquake",
        "title": "M 4.7 - 5 km NNE of Korumburra, Australia"
      },
      "geometry": {
        "type": "Point",
        "coordinates": [145.8401, -38.3802, 10]
      },
      "id": "us1000sample2"
    },
    {
      "type": "Feature",
      "properties": {
        "mag": 5.1,
        "place": "120 km ESE of Hachijo-jima, Japan",
        "time": 1710010800000,
        "updated": 1710012000000,
        "tz": null,
        "url": "https://earthquake.usgs.gov/earthquakes/eventpage/us1000sample3",
        "felt": null,
        "cdi": null,
        "mmi": 3.4,
        "alert": null,
        "status": "reviewed",
        "tsunami": 0,
        "sig": 400,
        "net": "us",
        "code": "1000sample3",
        "magType": "mww",
        "type": "earthquake",
        "title": "M 5.1 - 120 km ESE of Hachijo-jima, Japan"
      },
      "geometry": {
        "type": "Point",
        "coordinates": [140.9, 32.6, 22.4]
      },
      "id": "us1000sample3"
    }
  ]
}
